STARLINK-37233          
1 68562U 26070W   26099.83335647 -.01047014  36625-3 -18440-2 0  9990
2 68562  53.1587 228.7650 0000787  52.2720 279.4317 16.01336691  2380
