{
  "norad_id": 68562,
  "name": "STARLINK-37233",
  "history": [
    {
      "epoch": "2026-04-09T20:00:01.999008Z",
      "apogee_km": 271.239372279495,
      "perigee_km": 270.19284280036845,
      "latitude_deg": -22.49701652112313,
      "longitude_deg": 72.71005740667111,
      "height_km": 277.03443215491546,
      "semi_major_axis_km": 6648.853107539931,
      "eccentricity": 7.87e-05,
      "inclination_deg": 53.1587,
      "raan_deg": 228.765,
      "arg_perigee_deg": 52.272,
      "mean_anomaly_deg": 279.4317,
      "mean_motion_rev_day": 16.01336691
    }
  ]
}